COSMOS 2058             
1 20465U 90010A   26194.20859403  .00001563  00000+0  88939-4 0  9995
2 20465  82.4672 283.6920 0007880 258.2666 101.7681 15.12150324961202
SL-14 R/B               
1 20466U 90010B   26193.93098359  .00000194  00000+0  20558-4 0  9992
2 20466  82.5034 149.7685 0018295 245.3215 114.6096 14.83662322947058
SL-14 R/B               
1 20511U 90018B   26194.20440757  .00000212  00000+0  23597-4 0  9992
2 20511  82.5219 105.7911 0017174  43.0004 317.2549 14.82233335941170
HST                     
1 20580U 90037B   26193.50194392  .00003754  00000+0  11416-3 0  9992
2 20580  28.4726 267.5224 0002269  77.7190 282.3660 15.31043109792455
SL-16 R/B               
1 20625U 90046B   26194.03324272  .00000166  00000+0  11034-3 0  9993
2 20625  70.9983  34.6648 0012442 118.1378 242.1003 14.15023666866125
COSMOS 2084             
1 20663U 90055A   26194.21976693  .00000952  00000+0  78361-4 0  9995
2 20663  62.7886 267.2310 0007820 316.2597  43.7884 15.06219713955229
SL-6 R/B(2)             
1 20666U 90055D   26193.97866178  .00001032  00000+0  87444-4 0  9998
2 20666  62.7802 187.6044 0044788   8.7150 351.4716 15.04082552957032
SL-8 R/B                
1 20775U 90078B   26194.19907140  .00012737  00000+0  36079-3 0  9995
2 20775  82.9031 138.1186 0343874 310.3368  46.8274 14.93532002828005
SL-8 R/B                
1 21088U 91006B   26194.08714743  .00000079  00000+0  63857-4 0  9999
2 21088  82.9411  76.7648 0023538  46.1489 114.9816 13.77508876781331
OKEAN-3                 
1 21397U 91039A   26193.59672090  .00001556  00000+0  10634-3 0  9996
2 21397  82.5139 215.7386 0012213 264.5319  95.4515 15.05425475883829
COSMOS 2151             
1 21422U 91042A   26194.13445038  .00000672  00000+0  51112-4 0  9995
2 21422  82.4979 322.6394 0012165   2.5338 357.5946 15.00510082882006
SL-14 R/B               
1 21423U 91042B   26194.14895806  .00000185  00000+0  20366-4 0  9995
2 21423  82.4934 102.5505 0016798 183.6324 176.4771 14.81917401871656
ERS-1                   
1 21574U 91050A   26194.09104300  .00000153  00000+0  63482-4 0  9998
2 21574  98.7795 215.4215 0031779 188.0207 172.0476 14.39532110833773
ARIANE 40 R/B           
1 21610U 91050F   26194.12172711  .00000131  00000+0  51584-4 0  9990
2 21610  98.1863 241.5266 0004232  65.9959 294.1674 14.42971235837084
INTERCOSMOS 25          
1 21819U 91086A   26194.02953500  .00000466  00000+0  89799-4 0  9992
2 21819  82.6011 234.1716 1484464 206.5995 145.0883 12.12239182511874
SL-8 R/B                
1 21876U 92008B   26193.93371963  .00000109  00000+0  96078-4 0  9998
2 21876  82.9271 174.6446 0035536 142.7751 246.3179 13.75983338726643
SL-8 R/B                
1 21938U 92020B   26194.11353977  .00000035  00000+0  20994-4 0  9999
2 21938  82.9286  60.5973 0028028 309.6542 204.7125 13.75550279718370
USA 81                  
1 21949U 92023A   26193.98188942  .00000114  00000+0  34784-4 0  9996
2 21949  85.0052  59.1167 0002088  65.7055 294.4355 14.32404579112726
COSMOS 2219             
1 22219U 92076A   26194.15116696 -.00000190  00000+0 -74807-4 0  9998
2 22219  71.0614 115.7964 0018138   0.6237 359.4905 14.14109328736115
SL-16 R/B               
1 22220U 92076B   26194.21511330  .00000221  00000+0  13397-3 0  9990
2 22220  71.0005 283.9526 0015020 264.6325 120.7702 14.16876632739613
COSMOS 2221             
1 22236U 92080A   26194.01439882  .00000876  00000+0  74399-4 0  9997
2 22236  82.5045 159.0196 0015575 126.8362 233.4292 14.96600353799538
SL-16 R/B               
1 22285U 92093B   26194.17811170 -.00000199  00000+0 -77414-4 0  9997
2 22285  71.0220 100.8298 0002364 139.8557 220.2741 14.15466459730917
COSMOS 2228             
1 22286U 92094A   26194.21189935  .00000961  00000+0  79634-4 0  9992
2 22286  82.5189 117.1153 0016196 236.3565 123.6113 14.97672011794844
SL-16 R/B               
1 22566U 93016B   26193.73687184  .00000067  00000+0  58609-4 0  9999
2 22566  71.0084 312.5439 0008937 142.4425 217.7324 14.15311733719865
COSMOS 2242             
1 22626U 93024A   26193.91592816  .00000938  00000+0  79193-4 0  9990
2 22626  82.5198 146.9272 0014524 241.0750 118.9016 14.96980925799126
SL-16 R/B               
1 22803U 93059B   26194.18112392 -.00000233  00000+0 -91559-4 0  9992
2 22803  70.9903 106.4880 0016546  11.5390 348.6110 14.17249937697319
ARIANE 40 R/B           
1 22830U 93061H   26194.18138913  .00000079  00000+0  44652-4 0  9990
2 22830  98.4808 260.4969 0009478 272.3235  87.6864 14.32918102712079
COSMOS 2278             
1 23087U 94023A   26194.20216919 -.00000079  00000+0 -16571-4 0  9991
2 23087  71.0525 272.4963 0009750 208.6350 151.4238 14.14393300662556
SL-16 R/B               
1 23088U 94023B   26193.90955014 -.00000001  00000+0  24176-4 0  9998
2 23088  70.9982 167.9116 0001446 137.0066 223.1170 14.15023948663803
SL-16 R/B               
1 23343U 94074B   26194.04392360  .00000208  00000+0  34439-4 0  9994
2 23343  97.6986 219.6865 0006985 160.7187 227.7465 14.79523286705784
SL-16 R/B               
1 23405U 94077B   26194.12495675 -.00000191  00000+0 -73168-4 0  9993
2 23405  70.9823  88.5951 0004091 304.9983  55.0756 14.15574600633981
ARIANE 40+ R/B          
1 23561U 95021B   26194.17674779  .00000122  00000+0  52738-4 0  9997
2 23561  98.4401 263.8749 0007845 121.6463 264.6723 14.39846937637304
SL-16 R/B               
1 23705U 95058B   26194.20864867  .00000054  00000+0  52218-4 0  9997
2 23705  71.0211 276.7263 0014603 285.3211  74.6298 14.15508209585616
SL-16 R/B               
1 24298U 96051B   26194.16371499  .00000149  00000+0  10722-3 0  9996
2 24298  70.7648 269.6761 0017648 300.7127  59.2253 14.12455688539368
ORBVIEW 2 (SEASTAR)     
1 24883U 97037A   26193.87826356  .00000113  00000+0  55497-4 0  9995
2 24883  98.8711   1.6123 0003136  65.5807 294.5705 14.35566188526437
SL-16 R/B               
1 25400U 98043G   26193.83184771 -.00000007  00000+0  15940-4 0  9995
2 25400  98.8378 148.2137 0010161  18.0514 342.1024 14.26072492456828
SL-16 R/B               
1 25407U 98045B   26194.15799110 -.00000244  00000+0 -98828-4 0  9999
2 25407  71.0114 277.7129 0008319 209.6452 150.4201 14.16206057444869
ISS (ZARYA)             
1 25544U 98067A   26194.12129675  .00004316  00000+0  86456-4 0  9991
2 25544  51.6304 171.7447 0006685 289.3803  70.6462 15.48996109575778
CZ-4B R/B               
1 25732U 99025C   26194.09277617  .00000024  00000+0  32307-4 0  9999
2 25732  98.6473 235.2777 0036744 345.8565  40.8493 14.18287488405942
OKEAN-O                 
1 25860U 99039A   26193.76014792  .00000283  00000+0  43799-4 0  9996
2 25860  97.9303 252.2628 0000928  82.8184 277.3133 14.80495702452895
SL-16 R/B               
1 25861U 99039B   26194.09581434  .00000241  00000+0  37296-4 0  9995
2 25861  97.9824 252.8832 0014166 205.4976 154.5539 14.81869576455432
DELTA 2 R/B             
1 25876U 99041E   26193.93981027  .00001315  00000+0  24967-3 0  9991
2 25876  51.7613 160.9088 0501330 358.0973   1.8044 14.12078490380725
HELIOS 1B               
1 25977U 99064A   26194.13459838  .00000700  00000+0  82482-4 0  9995
2 25977  98.1588 100.0232 0002062  56.5993 303.5420 14.88072367703919
TERRA                   
1 25994U 99068A   26194.18371551  .00000203  00000+0  50268-4 0  9993
2 25994  97.9443 242.6974 0003328 126.8576 326.3419 14.61122780413404
SL-16 R/B               
1 26070U 00006B   26193.99394546 -.00000216  00000+0 -85221-4 0  9993
2 26070  71.0002 194.3615 0017105 343.0288  17.0260 14.15838534366292
TITAN 4B R/B            
1 26474U 00047B   26194.15377091  .00001314  00000+0  86521-4 0  9993
2 26474  67.9872  47.4750 0045878 260.7886  98.8072 15.10327356411856
ENVISAT                 
1 27386U 02009A   26193.90693133  .00000019  00000+0  19975-4 0  9996
2 27386  98.3846 144.6536 0001340  84.1367 343.8430 14.39070470277187
IDEFIX & ARIANE 42P R/B 
1 27422U 02021B   26193.78908177  .00000092  00000+0  51657-4 0  9998
2 27422  98.5942 130.9953 0011734 173.4900 186.6438 14.31093152261910
AQUA                    
1 27424U 02022A   26194.19399369  .00000377  00000+0  84730-4 0  9998
2 27424  98.4294 163.9995 0000879 109.5064 306.2066 14.62195357287078
CZ-4B R/B               
1 27432U 02024C   26193.98472678  .00000010  00000+0  28071-4 0  9990
2 27432  98.8688 246.6356 0050575  28.2172  21.4970 14.14567965246950
MIDORI II (ADEOS-II)    
1 27597U 02056A   26193.89852744  .00000107  00000+0  59669-4 0  9997
2 27597  98.7893 153.3791 0001581  43.3981 316.7325 14.29362450228182
H-2A R/B                
1 27601U 02056E   26193.90257211  .00000119  00000+0  55877-4 0  9993
2 27601  98.3327 149.6416 0070764 147.6939 278.6451 14.33833159232059
CZ-4B R/B               
1 28059U 03049C   26194.01758654  .00000146  00000+0  45200-4 0  9993
2 28059  98.6908 193.8937 0047508 207.9769 151.8872 14.55115266204824
CZ-2C R/B               
1 28222U 04012C   26194.16142574  .00100274  00000+0  42892-3 0  9996
2 28222  97.7067 272.9570 0011468 197.3679 162.7199 15.84778211224005
SL-16 R/B               
1 28353U 04021B   26193.82972566  .00000055  00000+0  53173-4 0  9996
2 28353  71.0026 329.8723 0006390 227.0612 132.9975 14.14616126140532
CZ-4B R/B               
1 28415U 04035C   26194.08342749  .00004684  00000+0  15716-3 0  9995
2 28415  97.3359 226.8692 0029114 240.5375 119.2961 15.30974783199089
CZ-2C R/B               
1 28480U 04046B   26194.20493632  .00000049  00000+0  32889-4 0  9993
2 28480  98.1919 101.3566 0140015 143.2488 217.8394 14.27032739126409
ARIANE 5 R/B            
1 28499U 04049H   26193.92883715  .00000293  00000+0  39256-4 0  9995
2 28499  98.2739   7.1798 0082731 305.7334  53.6203 14.85477539164384
CZ-2D R/B               
1 28738U 05024B   26194.01573356  .00054658  00000+0  40848-3 0  9995
2 28738  97.3471 214.7884 0002037 197.1497 162.9698 15.72551891159397
ALOS (DAICHI)           
1 28931U 06002A   26193.88698149  .00000506  00000+0  92478-4 0  9999
2 28931  98.1336 149.3767 0000800  93.8796 266.2501 14.70099332 91877
